[{"OBJECT_NAME":"GOKTURK 1A","OBJECT_ID":"2016-073A","EPOCH":"2026-03-28T14:20:48.313824","MEAN_MOTION":14.62767188,"ECCENTRICITY":0.00013686,"INCLINATION":98.1337,"RA_OF_ASC_NODE":343.4973,"ARG_OF_PERICENTER":81.6336,"MEAN_ANOMALY":278.5021,"EPHEMERIS_TYPE":0,"CLASSIFICATION_TYPE":"U","NORAD_CAT_ID":41875,"ELEMENT_SET_NO":999,"REV_AT_EPOCH":49704,"BSTAR":2.8932161e-5,"MEAN_MOTION_DOT":1.01e-6,"MEAN_MOTION_DDOT":0},{"OBJECT_NAME":"RESOURCESAT-2A","OBJECT_ID":"2016-074A","EPOCH":"2026-03-28T14:58:06.422016","MEAN_MOTION":14.21608103,"ECCENTRICITY":0.00014885,"INCLINATION":98.7569,"RA_OF_ASC_NODE":161.7726,"ARG_OF_PERICENTER":344.3123,"MEAN_ANOMALY":15.8008,"EPHEMERIS_TYPE":0,"CLASSIFICATION_TYPE":"U","NORAD_CAT_ID":41877,"ELEMENT_SET_NO":999,"REV_AT_EPOCH":48285,"BSTAR":0.00015341766,"MEAN_MOTION_DOT":2.92e-6,"MEAN_MOTION_DDOT":0},{"OBJECT_NAME":"CARTOSAT-2D","OBJECT_ID":"2017-008A","EPOCH":"2026-03-27T16:27:35.970336","MEAN_MOTION":15.19256667,"ECCENTRICITY":0.0005431,"INCLINATION":97.4195,"RA_OF_ASC_NODE":147.4754,"ARG_OF_PERICENTER":156.1008,"MEAN_ANOMALY":204.048,"EPHEMERIS_TYPE":0,"CLASSIFICATION_TYPE":"U","NORAD_CAT_ID":41948,"ELEMENT_SET_NO":999,"REV_AT_EPOCH":50520,"BSTAR":2.7408022e-5,"MEAN_MOTION_DOT":5.1e-6,"MEAN_MOTION_DDOT":0},{"OBJECT_NAME":"SENTINEL-2B","OBJECT_ID":"2017-013A","EPOCH":"2026-03-28T13:52:29.424576","MEAN_MOTION":14.30814818,"ECCENTRICITY":0.00011757,"INCLINATION":98.5678,"RA_OF_ASC_NODE":163.5008,"ARG_OF_PERICENTER":92.9753,"MEAN_ANOMALY":267.1565,"EPHEMERIS_TYPE":0,"CLASSIFICATION_TYPE":"U","NORAD_CAT_ID":42063,"ELEMENT_SET_NO":999,"REV_AT_EPOCH":47311,"BSTAR":0.00011797929,"MEAN_MOTION_DOT":2.66e-6,"MEAN_MOTION_DDOT":0},{"OBJECT_NAME":"CARTOSAT-2E","OBJECT_ID":"2017-036C","EPOCH":"2026-03-27T16:52:06.735072","MEAN_MOTION":15.19224706,"ECCENTRICITY":0.00025945,"INCLINATION":97.4362,"RA_OF_ASC_NODE":147.8107,"ARG_OF_PERICENTER":217.4798,"MEAN_ANOMALY":142.6256,"EPHEMERIS_TYPE":0,"CLASSIFICATION_TYPE":"U","NORAD_CAT_ID":42767,"ELEMENT_SET_NO":999,"REV_AT_EPOCH":48577,"BSTAR":-4.95983e-7,"MEAN_MOTION_DOT":-7.8e-7,"MEAN_MOTION_DDOT":0},{"OBJECT_NAME":"FORMOSAT-5","OBJECT_ID":"2017-049A","EPOCH":"2026-03-28T13:40:41.177856","MEAN_MOTION":14.50705211,"ECCENTRICITY":0.00110361,"INCLINATION":98.2285,"RA_OF_ASC_NODE":164.666,"ARG_OF_PERICENTER":339.7866,"MEAN_ANOMALY":20.289,"EPHEMERIS_TYPE":0,"CLASSIFICATION_TYPE":"U","NORAD_CAT_ID":42920,"ELEMENT_SET_NO":999,"REV_AT_EPOCH":45498,"BSTAR":5.9951041e-5,"MEAN_MOTION_DOT":1.92e-6,"MEAN_MOTION_DDOT":0},{"OBJECT_NAME":"SENTINEL-5P","OBJECT_ID":"2017-064A","EPOCH":"2026-03-28T13:34:18.380928","MEAN_MOTION":14.19503692,"ECCENTRICITY":0.00011933,"INCLINATION":98.7907,"RA_OF_ASC_NODE":30.2795,"ARG_OF_PERICENTER":91.2048,"MEAN_ANOMALY":268.9264,"EPHEMERIS_TYPE":0,"CLASSIFICATION_TYPE":"U","NORAD_CAT_ID":42969,"ELEMENT_SET_NO":999,"REV_AT_EPOCH":43812,"BSTAR":5.2246663e-5,"MEAN_MOTION_DOT":6.6e-7,"MEAN_MOTION_DDOT":0},{"OBJECT_NAME":"SKYSAT-C11","OBJECT_ID":"2017-068A","EPOCH":"2026-03-28T12:44:48.797376","MEAN_MOTION":15.536015,"ECCENTRICITY":4.225e-5,"INCLINATION":97.423,"RA_OF_ASC_NODE":233.1633,"ARG_OF_PERICENTER":155.96,"MEAN_ANOMALY":204.1673,"EPHEMERIS_TYPE":0,"CLASSIFICATION_TYPE":"U","NORAD_CAT_ID":42987,"ELEMENT_SET_NO":999,"REV_AT_EPOCH":47070,"BSTAR":0.00050266155,"MEAN_MOTION_DOT":0.0003201,"MEAN_MOTION_DDOT":0},{"OBJECT_NAME":"SKYSAT-C10","OBJECT_ID":"2017-068B","EPOCH":"2026-03-28T12:45:50.845536","MEAN_MOTION":15.33117048,"ECCENTRICITY":0.00010324,"INCLINATION":97.4365,"RA_OF_ASC_NODE":223.7423,"ARG_OF_PERICENTER":107.0145,"MEAN_ANOMALY":253.121,"EPHEMERIS_TYPE":0,"CLASSIFICATION_TYPE":"U","NORAD_CAT_ID":42988,"ELEMENT_SET_NO":999,"REV_AT_EPOCH":46999,"BSTAR":0.00041562329,"MEAN_MOTION_DOT":0.00013227,"MEAN_MOTION_DDOT":0},{"OBJECT_NAME":"SKYSAT-C9","OBJECT_ID":"2017-068C","EPOCH":"2026-03-28T15:09:12.252384","MEAN_MOTION":15.39484096,"ECCENTRICITY":0.00097445,"INCLINATION":97.4288,"RA_OF_ASC_NODE":224.0418,"ARG_OF_PERICENTER":72.1126,"MEAN_ANOMALY":288.1182,"EPHEMERIS_TYPE":0,"CLASSIFICATION_TYPE":"U","NORAD_CAT_ID":42989,"ELEMENT_SET_NO":999,"REV_AT_EPOCH":47035,"BSTAR":0.00044582064,"MEAN_MOTION_DOT":0.0001745,"MEAN_MOTION_DDOT":0},{"OBJECT_NAME":"SKYSAT-C8","OBJECT_ID":"2017-068D","EPOCH":"2026-03-28T11:46:03.698976","MEAN_MOTION":15.35253395,"ECCENTRICITY":0.00012045,"INCLINATION":97.4382,"RA_OF_ASC_NODE":223.2045,"ARG_OF_PERICENTER":95.4811,"MEAN_ANOMALY":264.657,"EPHEMERIS_TYPE":0,"CLASSIFICATION_TYPE":"U","NORAD_CAT_ID":42990,"ELEMENT_SET_NO":999,"REV_AT_EPOCH":46992,"BSTAR":0.00041388874,"MEAN_MOTION_DOT":0.00014095,"MEAN_MOTION_DDOT":0},{"OBJECT_NAME":"SKYSAT-C7","OBJECT_ID":"2017-068E","EPOCH":"2026-03-28T08:24:54.590976","MEAN_MOTION":15.35201703,"ECCENTRICITY":0.00066897,"INCLINATION":97.4395,"RA_OF_ASC_NODE":224.0477,"ARG_OF_PERICENTER":47.1615,"MEAN_ANOMALY":313.019,"EPHEMERIS_TYPE":0,"CLASSIFICATION_TYPE":"U","NORAD_CAT_ID":42991,"ELEMENT_SET_NO":999,"REV_AT_EPOCH":46996,"BSTAR":0.0004055094,"MEAN_MOTION_DOT":0.00013794,"MEAN_MOTION_DDOT":0},{"OBJECT_NAME":"SKYSAT-C6","OBJECT_ID":"2017-068F","EPOCH":"2026-03-28T15:15:00.071136","MEAN_MOTION":15.32936921,"ECCENTRICITY":0.00037724,"INCLINATION":97.4429,"RA_OF_ASC_NODE":224.5639,"ARG_OF_PERICENTER":82.7165,"MEAN_ANOMALY":277.4506,"EPHEMERIS_TYPE":0,"CLASSIFICATION_TYPE":"U","NORAD_CAT_ID":42992,"ELEMENT_SET_NO":999,"REV_AT_EPOCH":46997,"BSTAR":0.00041029729,"MEAN_MOTION_DOT":0.00012984,"MEAN_MOTION_DDOT":0},{"OBJECT_NAME":"CARTOSAT-2F","OBJECT_ID":"2018-004A","EPOCH":"2026-03-28T14:11:02.496768","MEAN_MOTION":15.19271954,"ECCENTRICITY":0.00019281,"INCLINATION":97.4122,"RA_OF_ASC_NODE":148.4065,"ARG_OF_PERICENTER":150.4395,"MEAN_ANOMALY":209.6949,"EPHEMERIS_TYPE":0,"CLASSIFICATION_TYPE":"U","NORAD_CAT_ID":43111,"ELEMENT_SET_NO":999,"REV_AT_EPOCH":45509,"BSTAR":0.00032824567,"MEAN_MOTION_DOT":6.857e-5,"MEAN_MOTION_DDOT":0},{"OBJECT_NAME":"GAOFEN-1 02","OBJECT_ID":"2018-031A","EPOCH":"2026-03-28T14:00:08.822880","MEAN_MOTION":14.76434434,"ECCENTRICITY":0.00017375,"INCLINATION":98.0608,"RA_OF_ASC_NODE":150.3059,"ARG_OF_PERICENTER":263.3275,"MEAN_ANOMALY":96.7737,"EPHEMERIS_TYPE":0,"CLASSIFICATION_TYPE":"U","NORAD_CAT_ID":43259,"ELEMENT_SET_NO":999,"REV_AT_EPOCH":43080,"BSTAR":7.35187e-7,"MEAN_MOTION_DOT":-4.7e-7,"MEAN_MOTION_DDOT":0},{"OBJECT_NAME":"GAOFEN-1 03","OBJECT_ID":"2018-031B","EPOCH":"2026-03-28T15:06:24.478272","MEAN_MOTION":14.76454573,"ECCENTRICITY":0.00021559,"INCLINATION":98.0596,"RA_OF_ASC_NODE":150.2181,"ARG_OF_PERICENTER":359.0508,"MEAN_ANOMALY":1.0697,"EPHEMERIS_TYPE":0,"CLASSIFICATION_TYPE":"U","NORAD_CAT_ID":43260,"ELEMENT_SET_NO":999,"REV_AT_EPOCH":43080,"BSTAR":0.00012657057,"MEAN_MOTION_DOT":8.29e-6,"MEAN_MOTION_DDOT":0}]
