GOKTURK 1A              
1 41875U 16073A   26087.59778141  .00000101  00000+0  28932-4 0  9996
2 41875  98.1337 343.4973 0001368  81.6336 278.5021 14.62767188497045
RESOURCESAT-2A          
1 41877U 16074A   26087.62368544  .00000292  00000+0  15342-3 0  9996
2 41877  98.7569 161.7726 0001488 344.3123  15.8008 14.21608103482859
CARTOSAT-2D             
1 41948U 17008A   26086.68583299  .00000510  00000+0  27408-4 0  9994
2 41948  97.4195 147.4754 0005431 156.1008 204.0480 15.19256667505207
SENTINEL-2B             
1 42063U 17013A   26087.57811834  .00000266  00000+0  11798-3 0  9999
2 42063  98.5678 163.5008 0001175  92.9753 267.1565 14.30814818473118
CARTOSAT-2E             
1 42767U 17036C   26086.70285573 -.00000078  00000+0 -49598-6 0  9999
2 42767  97.4362 147.8107 0002594 217.4798 142.6256 15.19224706485779
FORMOSAT-5              
1 42920U 17049A   26087.56992104  .00000192  00000+0  59951-4 0  9991
2 42920  98.2285 164.6660 0011036 339.7866  20.2890 14.50705211454982
SENTINEL-5P             
1 42969U 17064A   26087.56549052  .00000066  00000+0  52247-4 0  9992
2 42969  98.7907  30.2795 0001193  91.2048 268.9264 14.19503692438121
SKYSAT-C11              
1 42987U 17068A   26087.53112034  .00032010  00000+0  50266-3 0  9991
2 42987  97.4230 233.1633 0000422 155.9600 204.1673 15.53601500470709
SKYSAT-C10              
1 42988U 17068B   26087.53183849  .00013227  00000+0  41562-3 0  9992
2 42988  97.4365 223.7423 0001032 107.0145 253.1210 15.33117048469998
SKYSAT-C9               
1 42989U 17068C   26087.63139181  .00017450  00000+0  44582-3 0  9991
2 42989  97.4288 224.0418 0009744  72.1126 288.1182 15.39484096470354
SKYSAT-C8               
1 42990U 17068D   26087.49032059  .00014095  00000+0  41389-3 0  9997
2 42990  97.4382 223.2045 0001204  95.4811 264.6570 15.35253395469923
SKYSAT-C7               
1 42991U 17068E   26087.35063184  .00013794  00000+0  40551-3 0  9991
2 42991  97.4395 224.0477 0006689  47.1615 313.0190 15.35201703469961
SKYSAT-C6               
1 42992U 17068F   26087.63541749  .00012984  00000+0  41030-3 0  9994
2 42992  97.4429 224.5639 0003772  82.7165 277.4506 15.32936921469979
CARTOSAT-2F             
1 43111U 18004A   26087.59100112  .00006857  00000+0  32825-3 0  9993
2 43111  97.4122 148.4065 0001928 150.4395 209.6949 15.19271954455098
GAOFEN-1 02             
1 43259U 18031A   26087.58343545 -.00000047  00000+0  73519-6 0  9998
2 43259  98.0608 150.3059 0001737 263.3275  96.7737 14.76434434430809
GAOFEN-1 03             
1 43260U 18031B   26087.62944998  .00000829  00000+0  12657-3 0  9994
2 43260  98.0596 150.2181 0002155 359.0508   1.0697 14.76454573430809
